{
  "norad_id": 66130,
  "name": "STARLINK-35637",
  "history": [
    {
      "epoch": "2026-03-28T22:01:08.042016Z",
      "apogee_km": 476.084507385679,
      "perigee_km": 474.3985762643897,
      "latitude_deg": -1.1669472060564417e-05,
      "longitude_deg": 153.75336285863452,
      "height_km": 475.8877989503452,
      "semi_major_axis_km": 6853.378541825034,
      "eccentricity": 0.000123,
      "inclination_deg": 53.1586,
      "raan_deg": 310.3679,
      "arg_perigee_deg": 72.6199,
      "mean_anomaly_deg": 287.4936,
      "mean_motion_rev_day": 15.30191134
    }
  ]
}